GLOBAL-2                
1 43812U 18099BG  26204.08718091  .00002709  00000+0  17579-3 0  9992
2 43812  97.3548 239.1082 0006947  46.1859 313.9944 15.08860752417322
GLOBAL-4                
1 44499U 19054E   26203.92452204  .00076341  00000+0  67304-3 0  9993
2 44499  45.0060  29.6651 0006647 243.5323 116.4894 15.67817374385964
GLOBAL-9                
1 47971U 21023G   26204.27879029  .00023167  00000+0  44067-3 0  9996
2 47971  44.9818  47.4664 0004543 218.9150 141.1414 15.47876804300534
GLOBAL-14               
1 49469U 21106A   26204.00836607  .00029047  00000+0  46819-3 0  9998
2 49469  42.0043  77.9358 0018581 274.4985  85.3736 15.52129301263695
GLOBAL-12               
1 49772U 21115BA  26203.81590584  .00029990  00000+0  43444-3 0  9992
2 49772  53.1933 232.9447 0003060  81.3424 278.7935 15.55642964261442
GLOBAL-13               
1 49773U 21115BB  26203.72337517  .00019452  00000+0  38255-3 0  9994
2 49773  53.1961 245.4866 0000228  53.5734 306.5296 15.47309232261265
GLOBAL-17               
1 49949U 21120A   26204.16228523  .00027447  00000+0  41459-3 0  9993
2 49949  41.9927 194.6241 0014313 152.7031 207.4569 15.54027238260498
GLOBAL-16               
1 49950U 21120B   26204.29066216  .00023160  00000+0  38118-3 0  9994
2 49950  41.9930 198.2950 0012119 143.7500 216.4168 15.51761607260457
GLOBAL-18               
1 52196U 22034B   26204.04806133  .00025947  00000+0  50358-3 0  9993
2 52196  52.9813  85.0921 0004683  43.9828 316.1550 15.47497679242517
GLOBAL-19               
1 55982U 23041B   26203.80459278  .00016632  00000+0  42841-3 0  9994
2 55982  42.0029 354.0544 0010442 265.5834  94.3813 15.38839448187419
GLOBAL-5                
1 55983U 23041C   26203.70739089  .00015443  00000+0  39839-3 0  9997
2 55983  42.0019 354.1465 0009259 260.1116  99.8678 15.38847788187404
