{"fetched_at":"2026-07-23T17:55:30.981Z","source":"https://celestrak.org/NORAD/elements/gp.php?NAME=GLOBAL&FORMAT=JSON","constellation":"blacksky-gen2","records":[{"OBJECT_NAME":"GLOBAL-2","OBJECT_ID":"2018-099BG","EPOCH":"2026-07-23T02:05:32.430624","CLASSIFICATION_TYPE":"U","MEAN_MOTION":15.08860752,"ECCENTRICITY":0.00069472,"INCLINATION":97.3548,"RA_OF_ASC_NODE":239.1082,"ARG_OF_PERICENTER":46.1859,"MEAN_ANOMALY":313.9944,"EPHEMERIS_TYPE":0,"NORAD_CAT_ID":43812,"ELEMENT_SET_NO":999,"REV_AT_EPOCH":41732,"BSTAR":0.00017578532,"MEAN_MOTION_DOT":0.00002709,"MEAN_MOTION_DDOT":0},{"OBJECT_NAME":"GLOBAL-4","OBJECT_ID":"2019-054E","EPOCH":"2026-07-22T22:11:18.704256","CLASSIFICATION_TYPE":"U","MEAN_MOTION":15.67817374,"ECCENTRICITY":0.00066473,"INCLINATION":45.006,"RA_OF_ASC_NODE":29.6651,"ARG_OF_PERICENTER":243.5323,"MEAN_ANOMALY":116.4894,"EPHEMERIS_TYPE":0,"NORAD_CAT_ID":44499,"ELEMENT_SET_NO":999,"REV_AT_EPOCH":38596,"BSTAR":0.00067304365,"MEAN_MOTION_DOT":0.00076341,"MEAN_MOTION_DDOT":0},{"OBJECT_NAME":"GLOBAL-9","OBJECT_ID":"2021-023G","EPOCH":"2026-07-23T06:41:27.481056","CLASSIFICATION_TYPE":"U","MEAN_MOTION":15.47876804,"ECCENTRICITY":0.00045438,"INCLINATION":44.9818,"RA_OF_ASC_NODE":47.4664,"ARG_OF_PERICENTER":218.915,"MEAN_ANOMALY":141.1414,"EPHEMERIS_TYPE":0,"NORAD_CAT_ID":47971,"ELEMENT_SET_NO":999,"REV_AT_EPOCH":30053,"BSTAR":0.00044067393,"MEAN_MOTION_DOT":0.00023167,"MEAN_MOTION_DDOT":0},{"OBJECT_NAME":"GLOBAL-14","OBJECT_ID":"2021-106A","EPOCH":"2026-07-23T00:12:02.828448","CLASSIFICATION_TYPE":"U","MEAN_MOTION":15.52129301,"ECCENTRICITY":0.00185817,"INCLINATION":42.0043,"RA_OF_ASC_NODE":77.9358,"ARG_OF_PERICENTER":274.4985,"MEAN_ANOMALY":85.3736,"EPHEMERIS_TYPE":0,"NORAD_CAT_ID":49469,"ELEMENT_SET_NO":999,"REV_AT_EPOCH":26369,"BSTAR":0.00046819245,"MEAN_MOTION_DOT":0.00029047,"MEAN_MOTION_DDOT":0},{"OBJECT_NAME":"GLOBAL-12","OBJECT_ID":"2021-115BA","EPOCH":"2026-07-22T19:34:54.264576","CLASSIFICATION_TYPE":"U","MEAN_MOTION":15.55642964,"ECCENTRICITY":0.000306,"INCLINATION":53.1933,"RA_OF_ASC_NODE":232.9447,"ARG_OF_PERICENTER":81.3424,"MEAN_ANOMALY":278.7935,"EPHEMERIS_TYPE":0,"NORAD_CAT_ID":49772,"ELEMENT_SET_NO":999,"REV_AT_EPOCH":26144,"BSTAR":0.00043444019,"MEAN_MOTION_DOT":0.0002999,"MEAN_MOTION_DDOT":0},{"OBJECT_NAME":"GLOBAL-13","OBJECT_ID":"2021-115BB","EPOCH":"2026-07-22T17:21:39.614688","CLASSIFICATION_TYPE":"U","MEAN_MOTION":15.47309232,"ECCENTRICITY":0.00002285,"INCLINATION":53.1961,"RA_OF_ASC_NODE":245.4866,"ARG_OF_PERICENTER":53.5734,"MEAN_ANOMALY":306.5296,"EPHEMERIS_TYPE":0,"NORAD_CAT_ID":49773,"ELEMENT_SET_NO":999,"REV_AT_EPOCH":26126,"BSTAR":0.00038255161,"MEAN_MOTION_DOT":0.00019452,"MEAN_MOTION_DDOT":0},{"OBJECT_NAME":"GLOBAL-17","OBJECT_ID":"2021-120A","EPOCH":"2026-07-23T03:53:41.443872","CLASSIFICATION_TYPE":"U","MEAN_MOTION":15.54027238,"ECCENTRICITY":0.00143135,"INCLINATION":41.9927,"RA_OF_ASC_NODE":194.6241,"ARG_OF_PERICENTER":152.7031,"MEAN_ANOMALY":207.4569,"EPHEMERIS_TYPE":0,"NORAD_CAT_ID":49949,"ELEMENT_SET_NO":999,"REV_AT_EPOCH":26049,"BSTAR":0.00041458699,"MEAN_MOTION_DOT":0.00027447,"MEAN_MOTION_DDOT":0},{"OBJECT_NAME":"GLOBAL-16","OBJECT_ID":"2021-120B","EPOCH":"2026-07-23T06:58:33.210624","CLASSIFICATION_TYPE":"U","MEAN_MOTION":15.51761607,"ECCENTRICITY":0.00121197,"INCLINATION":41.993,"RA_OF_ASC_NODE":198.295,"ARG_OF_PERICENTER":143.75,"MEAN_ANOMALY":216.4168,"EPHEMERIS_TYPE":0,"NORAD_CAT_ID":49950,"ELEMENT_SET_NO":999,"REV_AT_EPOCH":26045,"BSTAR":0.00038118175,"MEAN_MOTION_DOT":0.0002316,"MEAN_MOTION_DDOT":0},{"OBJECT_NAME":"GLOBAL-18","OBJECT_ID":"2022-034B","EPOCH":"2026-07-23T01:09:12.498912","CLASSIFICATION_TYPE":"U","MEAN_MOTION":15.47497679,"ECCENTRICITY":0.00046832,"INCLINATION":52.9813,"RA_OF_ASC_NODE":85.0921,"ARG_OF_PERICENTER":43.9828,"MEAN_ANOMALY":316.155,"EPHEMERIS_TYPE":0,"NORAD_CAT_ID":52196,"ELEMENT_SET_NO":999,"REV_AT_EPOCH":24251,"BSTAR":0.00050358272,"MEAN_MOTION_DOT":0.00025947,"MEAN_MOTION_DDOT":0},{"OBJECT_NAME":"GLOBAL-19","OBJECT_ID":"2023-041B","EPOCH":"2026-07-22T19:18:36.816192","CLASSIFICATION_TYPE":"U","MEAN_MOTION":15.38839448,"ECCENTRICITY":0.00104422,"INCLINATION":42.0029,"RA_OF_ASC_NODE":354.0544,"ARG_OF_PERICENTER":265.5834,"MEAN_ANOMALY":94.3813,"EPHEMERIS_TYPE":0,"NORAD_CAT_ID":55982,"ELEMENT_SET_NO":999,"REV_AT_EPOCH":18741,"BSTAR":0.00042841398,"MEAN_MOTION_DOT":0.00016632,"MEAN_MOTION_DDOT":0},{"OBJECT_NAME":"GLOBAL-5","OBJECT_ID":"2023-041C","EPOCH":"2026-07-22T16:58:38.572896","CLASSIFICATION_TYPE":"U","MEAN_MOTION":15.38847788,"ECCENTRICITY":0.00092593,"INCLINATION":42.0019,"RA_OF_ASC_NODE":354.1465,"ARG_OF_PERICENTER":260.1116,"MEAN_ANOMALY":99.8678,"EPHEMERIS_TYPE":0,"NORAD_CAT_ID":55983,"ELEMENT_SET_NO":999,"REV_AT_EPOCH":18740,"BSTAR":0.00039838769,"MEAN_MOTION_DOT":0.00015443,"MEAN_MOTION_DDOT":0}]}
